NORAD_CAT_ID,OBJECT_NAME,OBJECT_TYPE,EPOCH,MEAN_MOTION,ECCENTRICITY,INCLINATION,RA_OF_ASC_NODE,ARG_OF_PERICENTER,MEAN_ANOMALY,BSTAR,MEAN_MOTION_DOT,MEAN_MOTION_DDOT,TLE_LINE0,TLE_LINE1,TLE_LINE2,SEMIMAJOR_AXIS,PERIOD,APOGEE,PERIGEE,DECAYED
56775.0,STARLINK-6292,PAYLOAD,2024-01-14 17:29:17,15.69944667,0.0002492,69.9978,130.9912,279.7179,80.3736,-4.0957e-05,-5.137e-05,0.0,0 STARLINK-6292,1 56775U 23078J   24014.72867827 -.00005137  00000-0 -40957-4 0  9995,2 56775  69.9978 130.9912 0002492 279.7179  80.3736 15.69944667 36164,6737.192,91.723,360.736,357.378,0.0
56775.0,STARLINK-6292,PAYLOAD,2024-01-15 10:18:35,15.69914129,0.0004442,69.9977,129.0246,284.0228,76.0474,-4.1454e-06,-7.12e-06,0.0,0 STARLINK-6292,1 56775U 23078J   24015.42957209 -.00000712  00000-0 -41454-5 0  9995,2 56775  69.9977 129.0246 0004442 284.0228  76.0474 15.69914129 36276,6737.28,91.725,362.137,356.152,0.0
56775.0,STARLINK-6292,PAYLOAD,2024-01-15 16:25:35,15.69916541,0.0003407,69.9981,128.3082,270.5749,89.5056,-4.8929e-07,-2.72e-06,0.0,0 STARLINK-6292,1 56775U 23078J   24015.68443690 -.00000272  00000-0 -48929-6 0  9993,2 56775  69.9981 128.3082 0003407 270.5749  89.5056 15.69916541 36050,6737.273,91.725,361.433,356.842,0.0
56775.0,STARLINK-6292,PAYLOAD,2024-01-16 10:46:35,15.69932179,0.0003167,69.9979,126.1574,275.77,84.3134,8.8355e-06,8.5e-06,0.0,0 STARLINK-6292,1 56775U 23078J   24016.44902738  .00000850  00000-0  88355-5 0  9997,2 56775  69.9979 126.1574 0003167 275.7700  84.3134 15.69932179 36433,6737.228,91.724,361.227,356.959,0.0
56775.0,STARLINK-6292,PAYLOAD,2024-01-16 16:53:38,15.69909957,0.0003141,69.9987,125.4416,289.9139,70.1718,-9.1757e-06,-1.315e-05,0.0,0 STARLINK-6292,1 56775U 23078J   24016.70391294 -.00001315  00000-0 -91757-5 0  9994,2 56775  69.9987 125.4416 0003141 289.9139  70.1718 15.69909957 36477,6737.292,91.725,361.273,357.04,0.0
56775.0,STARLINK-6292,PAYLOAD,2024-01-17 09:42:53,15.69916173,0.0002976,69.9975,123.4717,264.7088,95.3768,2.3203e-05,2.577e-05,0.0,0 STARLINK-6292,1 56775U 23078J   24017.40478576  .00002577  00000-0  23203-4 0  9990,2 56775  69.9975 123.4717 0002976 264.7088  95.3768 15.69916173 36589,6737.274,91.725,361.144,357.134,0.0
56775.0,STARLINK-6292,PAYLOAD,2024-01-17 15:49:53,15.69919466,0.000291,69.9979,122.7561,262.7614,97.3251,2.5366e-05,2.838e-05,0.0,0 STARLINK-6292,1 56775U 23078J   24017.65965178  .00002838  00000-0  25366-4 0  9998,2 56775  69.9979 122.7561 0002910 262.7614  97.3251 15.69919466 36366,6737.264,91.724,361.09,357.169,0.0
56775.0,STARLINK-6292,PAYLOAD,2024-01-18 10:10:54,15.6993193,0.0003257,69.9973,120.6053,262.8163,97.2663,1.9981e-06,2.8e-07,0.0,0 STARLINK-6292,1 56775U 23078J   24018.42424685  .00000028  00000-0  19981-5 0  9993,2 56775  69.9973 120.6053 0003257 262.8163  97.2663 15.69931930 36746,6737.229,91.724,361.288,356.899,0.0
56775.0,STARLINK-6292,PAYLOAD,2024-01-18 14:46:10,15.69924905,0.0003169,69.998,120.069,258.8514,101.2325,-4.2587e-06,-7.25e-06,0.0,0 STARLINK-6292,1 56775U 23078J   24018.61540227 -.00000725  00000-0 -42587-5 0  9999,2 56775  69.9980 120.0690 0003169 258.8514 101.2325 15.69924905 36512,6737.249,91.724,361.249,356.979,0.0
56775.0,STARLINK-6292,PAYLOAD,2024-01-18 16:17:55,15.69923504,0.0003251,69.9976,119.8889,260.9926,99.0902,-5.4095e-06,-8.63e-06,0.0,0 STARLINK-6292,1 56775U 23078J   24018.67911995 -.00000863  00000-0 -54095-5 0  9999,2 56775  69.9976 119.8889 0003251 260.9926  99.0902 15.69923504 36784,6737.253,91.724,361.308,356.928,0.0
56775.0,STARLINK-6292,PAYLOAD,2024-01-19 09:07:12,15.69927924,0.0003817,69.9966,117.9185,272.1153,87.9606,4.7928e-06,3.63e-06,0.0,0 STARLINK-6292,1 56775U 23078J   24019.38000035  .00000363  00000-0  47928-5 0  9992,2 56775  69.9966 117.9185 0003817 272.1153  87.9606 15.69927924 36637,6737.24,91.724,361.677,356.534,0.0
56775.0,STARLINK-6292,PAYLOAD,2024-01-19 16:45:57,15.69928585,0.0003909,69.9967,117.0224,271.8433,88.2315,7.5354e-06,6.93e-06,0.0,0 STARLINK-6292,1 56775U 23078J   24019.69858188  .00000693  00000-0  75354-5 0  9996,2 56775  69.9967 117.0224 0003909 271.8433  88.2315 15.69928585 36941,6737.238,91.724,361.737,356.47,0.0
56775.0,STARLINK-6292,PAYLOAD,2024-01-20 09:35:14,15.6991665,0.0003634,69.9971,115.0521,267.2651,92.8129,7.6689e-06,7.09e-06,0.0,0 STARLINK-6292,1 56775U 23078J   24020.39947346  .00000709  00000-0  76689-5 0  9990,2 56775  69.9971 115.0521 0003634 267.2651  92.8129 15.69916650 37057,6737.272,91.725,361.586,356.689,0.0
56775.0,STARLINK-6292,PAYLOAD,2024-01-20 14:10:29,15.69921575,0.0003504,69.9971,114.5147,262.8887,97.191,1.3864e-05,1.454e-05,0.0,0 STARLINK-6292,1 56775U 23078J   24020.59061972  .00001454  00000-0  13864-4 0  9997,2 56775  69.9971 114.5147 0003504 262.8887  97.1910 15.69921575 36825,6737.258,91.724,361.484,356.763,0.0
56775.0,STARLINK-6292,PAYLOAD,2024-01-20 15:42:14,15.69924877,0.0003461,69.9975,114.3358,264.821,95.2591,1.7709e-05,1.917e-05,0.0,0 STARLINK-6292,1 56775U 23078J   24020.65433394  .00001917  00000-0  17709-4 0  9991,2 56775  69.9975 114.3358 0003461 264.8210  95.2591 15.69924877 37097,6737.249,91.724,361.446,356.782,0.0
56775.0,STARLINK-6292,PAYLOAD,2024-01-21 07:00:43,15.69190628,0.0003119,69.9972,112.5463,268.231,91.8528,-0.00078886,-0.00091239,0.0,0 STARLINK-6292,1 56775U 23078J   24021.29217135 -.00091239  00000-0 -78886-3 0  9995,2 56775  69.9972 112.5463 0003119 268.2310  91.8528 15.69190628 36933,6739.35,91.767,363.317,359.113,0.0
56775.0,STARLINK-6292,PAYLOAD,2024-01-21 10:04:20,15.69142923,0.0003079,69.9973,112.1878,271.3563,88.728,-0.00082477,-0.00095151,0.0,0 STARLINK-6292,1 56775U 23078J   24021.41968200 -.00095151  00000-0 -82477-3 0  9993,2 56775  69.9973 112.1878 0003079 271.3563  88.7280 15.69142923 37217,6739.487,91.77,363.427,359.277,0.0
56775.0,STARLINK-6292,PAYLOAD,2024-01-21 13:07:59,15.69084642,0.0003151,69.9971,111.83,271.8106,88.2728,-0.00088441,-0.00101695,0.0,0 STARLINK-6292,1 56775U 23078J   24021.54721896 -.00101695  00000-0 -88441-3 0  9993,2 56775  69.9971 111.8300 0003151 271.8106  88.2728 15.69084642 37237,6739.654,91.773,363.643,359.395,0.0
56775.0,STARLINK-6292,PAYLOAD,2024-01-21 16:11:57,15.68759237,0.0003512,69.997,111.4729,271.271,88.8083,-0.0012386,-0.00139829,0.0,0 STARLINK-6292,1 56775U 23078J   24021.67497142 -.00139829  00000-0 -12386-2 0  9995,2 56775  69.9970 111.4729 0003512 271.2710  88.8083 15.68759237 37253,6740.586,91.792,364.818,360.084,0.0
56775.0,STARLINK-6292,PAYLOAD,2024-01-22 06:00:00,15.66889476,0.0003558,70.0001,109.8582,274.0082,93.1504,-0.0092878,-0.00900809,0.0,0 STARLINK-6292,1 56775U 23078J   24022.25001157 -.00900809  00000-0 -92878-2 0  9995,2 56775  70.0001 109.8582 0003558 274.0082  93.1504 15.66889476 37346,6745.947,91.902,370.212,365.412,0.0
56775.0,STARLINK-6292,PAYLOAD,2024-01-22 08:00:01,15.66746846,0.0003424,70.0003,109.6249,276.1225,200.93,-0.009754,-0.00936991,0.0,0 STARLINK-6292,1 56775U 23078J   24022.33334491 -.00936991  00000-0 -97540-2 0  9996,2 56775  70.0003 109.6249 0003424 276.1225 200.9300 15.66746846  5991,6746.357,91.91,370.531,365.912,0.0
56775.0,STARLINK-6292,PAYLOAD,2024-01-22 22:00:00,15.65597976,0.0003461,69.9998,107.994,278.5171,246.4612,-0.010361,-0.00949015,0.0,0 STARLINK-6292,1 56775U 23078J   24022.91667824 -.00949015  00000-0 -10361-1 0  9995,2 56775  69.9998 107.9940 0003461 278.5171 246.4612 15.65597976 37440,6749.657,91.978,373.858,369.185,0.0
56775.0,STARLINK-6292,PAYLOAD,2024-01-23 08:00:01,15.64802006,0.0003593,69.9999,106.831,274.4093,77.6025,-0.010816,-0.00958695,0.0,0 STARLINK-6292,1 56775U 23078J   24023.33334491 -.00958695  00000-0 -10816-1 0  9992,2 56775  69.9999 106.8310 0003593 274.4093  77.6025 15.64802006  5993,6751.945,92.024,376.236,371.384,0.0
56775.0,STARLINK-6292,PAYLOAD,2024-01-23 14:00:01,15.64260171,0.0003499,69.9997,106.1337,277.9246,41.7489,-0.010083,-0.00881675,0.0,0 STARLINK-6292,1 56775U 23078J   24023.58334491 -.00881675  00000-0 -10083-1 0  9998,2 56775  69.9997 106.1337 0003499 277.9246  41.7489 15.64260171 37550,6753.504,92.056,377.732,373.006,0.0
56775.0,STARLINK-6292,PAYLOAD,2024-01-24 00:00:00,15.63432737,0.0003443,69.9998,104.9726,275.1935,229.5753,-0.010296,-0.00872146,0.0,0 STARLINK-6292,1 56775U 23078J   24024.00001157 -.00872146  00000-0 -10296-1 0  9995,2 56775  69.9998 104.9726 0003443 275.1935 229.5753 15.63432737  6030,6755.887,92.105,380.078,375.426,0.0
56775.0,STARLINK-6292,PAYLOAD,2024-01-24 06:00:02,15.62985534,0.0003428,70.0001,104.2769,273.8779,197.4016,-0.011036,-0.00914458,0.0,0 STARLINK-6292,1 56775U 23078J   24024.25002315 -.00914458  00000-0 -11036-1 0  9995,2 56775  70.0001 104.2769 0003428 273.8779 197.4016 15.62985534 37656,6757.176,92.131,381.357,376.724,0.0
56775.0,STARLINK-6292,PAYLOAD,2024-01-24 14:00:01,15.62299819,0.0003487,69.9999,103.3498,278.0445,267.7931,-0.010839,-0.00877719,0.0,0 STARLINK-6292,1 56775U 23078J   24024.58334491 -.00877719  00000-0 -10839-1 0  9992,2 56775  69.9999 103.3498 0003487 278.0445 267.7931 15.62299819  5768,6759.153,92.172,383.375,378.661,0.0
56775.0,STARLINK-6292,PAYLOAD,2024-01-24 22:00:00,15.61676496,0.0003481,69.9996,102.4236,273.8079,345.8447,-0.011923,-0.00936516,0.0,0 STARLINK-6292,1 56775U 23078J   24024.91667824 -.00936516  00000-0 -11923-1 0  9994,2 56775  69.9996 102.4236 0003481 273.8079 345.8447 15.61676496 37769,6760.951,92.209,385.17,380.463,0.0
56775.0,STARLINK-6292,PAYLOAD,2024-01-25 00:00:00,15.6147341,0.0003567,69.9996,102.1921,272.9957,95.0022,-0.011053,-0.00867654,0.0,0 STARLINK-6292,1 56775U 23078J   24025.00001157 -.00867654  00000-0 -11053-1 0  9996,2 56775  69.9996 102.1921 0003567 272.9957  95.0022 15.61473410  5834,6761.537,92.221,385.814,380.99,0.0
56775.0,STARLINK-6292,PAYLOAD,2024-01-25 14:00:01,15.60346341,0.0003634,69.9995,100.5738,279.8395,125.1156,-0.011688,-0.00877532,0.0,0 STARLINK-6292,1 56775U 23078J   24025.58334491 -.00877532  00000-0 -11688-1 0  9999,2 56775  69.9995 100.5738 0003634 279.8395 125.1156 15.60346341 37860,6764.793,92.287,389.116,384.2,0.0
